[
    {
        "Altitude(m)": 607910.9901598268,
        "Argument of Periapsis(deg)": 0.0,
        "Eccentricity": 0.0,
        "Inclination(deg)": 60.0,
        "Latitude(deg)": -14.292837788513422,
        "Longitude(deg)": 123.4426399629081,
        "Mean Anomaly(deg)": 196.36359999999996,
        "RAAN(deg)": 35.0,
        "Satellite Name": "Test1 166",
        "Satellite Number": 166,
        "Semi-Major Axis(m)": 6980739.136638005,
        "Time(s)": 0
    },
    {
        "Altitude(m)": 608060.2231395848,
        "Argument of Periapsis(deg)": 0.00010418945913296404,
        "Eccentricity": 0.0,
        "Inclination(deg)": 60.0,
        "Latitude(deg)": -14.826499348832241,
        "Longitude(deg)": 123.73124896786385,
        "Mean Anomaly(deg)": 196.98370614546178,
        "RAAN(deg)": 34.99957995086025,
        "Satellite Name": "Test1 166",
        "Satellite Number": 166,
        "Semi-Major Axis(m)": 6980739.136638005,
        "Time(s)": 10
    },
    {
        "Altitude(m)": 608211.8863353531,
        "Argument of Periapsis(deg)": 0.0002083789182659281,
        "Eccentricity": 0.0,
        "Inclination(deg)": 60.0,
        "Latitude(deg)": -15.359644693555945,
        "Longitude(deg)": 124.02146675083722,
        "Mean Anomaly(deg)": 197.60381229092366,
        "RAAN(deg)": 34.99915990172051,
        "Satellite Name": "Test1 166",
        "Satellite Number": 166,
        "Semi-Major Axis(m)": 6980739.136638005,
        "Time(s)": 20
    },
    {
        "Altitude(m)": 608365.9316659815,
        "Argument of Periapsis(deg)": 0.00031256837739889213,
        "Eccentricity": 0.0,
        "Inclination(deg)": 60.0,
        "Latitude(deg)": -15.892252613613636,
        "Longitude(deg)": 124.31336077909054,
        "Mean Anomaly(deg)": 198.22391843638547,
        "RAAN(deg)": 34.99873985258077,
        "Satellite Name": "Test1 166",
        "Satellite Number": 166,
        "Semi-Major Axis(m)": 6980739.136638005,
        "Time(s)": 30
    },
    {
        "Altitude(m)": 608522.309852781,
        "Argument of Periapsis(deg)": 0.0004167578365318562,
        "Eccentricity": 0.0,
        "Inclination(deg)": 60.0,
        "Latitude(deg)": -16.424301567678253,
        "Longitude(deg)": 124.6070000388878,
        "Mean Anomaly(deg)": 198.8440245818473,
        "RAAN(deg)": 34.998319803441035,
        "Satellite Name": "Test1 166",
        "Satellite Number": 166,
        "Semi-Major Axis(m)": 6980739.136638005,
        "Time(s)": 40
    },
    {
        "Altitude(m)": 608680.9704408258,
        "Argument of Periapsis(deg)": 0.0005209472956648203,
        "Eccentricity": 0.0,
        "Inclination(deg)": 60.0,
        "Latitude(deg)": -16.955769666145066,
        "Longitude(deg)": 124.90245407082419,
        "Mean Anomaly(deg)": 199.46413072730914,
        "RAAN(deg)": 34.99789975430128,
        "Satellite Name": "Test1 166",
        "Satellite Number": 166,
        "Semi-Major Axis(m)": 6980739.136638005,
        "Time(s)": 50
    },
    {
        "Altitude(m)": 608841.861820824,
        "Argument of Periapsis(deg)": 0.0006251367547977843,
        "Eccentricity": 0.0,
        "Inclination(deg)": 60.0,
        "Latitude(deg)": -17.486634654630873,
        "Longitude(deg)": 125.19979351886565,
        "Mean Anomaly(deg)": 200.084236872771,
        "RAAN(deg)": 34.99747970516154,
        "Satellite Name": "Test1 166",
        "Satellite Number": 166,
        "Semi-Major Axis(m)": 6980739.136638005,
        "Time(s)": 60
    },
    {
        "Altitude(m)": 609004.9312515397,
        "Argument of Periapsis(deg)": 0.0007293262139307483,
        "Eccentricity": 0.0,
        "Inclination(deg)": 60.0,
        "Latitude(deg)": -18.016873896970218,
        "Longitude(deg)": 125.49909068025147,
        "Mean Anomaly(deg)": 200.70434301823275,
        "RAAN(deg)": 34.9970596560218,
        "Satellite Name": "Test1 166",
        "Satellite Number": 166,
        "Semi-Major Axis(m)": 6980739.136638005,
        "Time(s)": 70
    },
    {
        "Altitude(m)": 609170.1248827386,
        "Argument of Periapsis(deg)": 0.0008335156730637124,
        "Eccentricity": 0.0,
        "Inclination(deg)": 60.0,
        "Latitude(deg)": -18.546464357682442,
        "Longitude(deg)": 125.80041854341036,
        "Mean Anomaly(deg)": 201.32444916369465,
        "RAAN(deg)": 34.996639606882056,
        "Satellite Name": "Test1 166",
        "Satellite Number": 166,
        "Semi-Major Axis(m)": 6980739.136638005,
        "Time(s)": 80
    },
    {
        "Altitude(m)": 609337.387778701,
        "Argument of Periapsis(deg)": 0.0009377051321966765,
        "Eccentricity": 0.0,
        "Inclination(deg)": 60.0,
        "Latitude(deg)": -19.075382583888025,
        "Longitude(deg)": 126.10385133965592,
        "Mean Anomaly(deg)": 201.94455530915644,
        "RAAN(deg)": 34.996219557742315,
        "Satellite Name": "Test1 166",
        "Satellite Number": 166,
        "Semi-Major Axis(m)": 6980739.136638005,
        "Time(s)": 90
    },
    {
        "Altitude(m)": 609506.6639421933,
        "Argument of Periapsis(deg)": 0.0010418945913296407,
        "Eccentricity": 0.0,
        "Inclination(deg)": 60.0,
        "Latitude(deg)": -19.603604686648954,
        "Longitude(deg)": 126.40946509581184,
        "Mean Anomaly(deg)": 202.5646614546183,
        "RAAN(deg)": 34.99579950860257,
        "Satellite Name": "Test1 166",
        "Satellite Number": 166,
        "Semi-Major Axis(m)": 6980739.136638005,
        "Time(s)": 100
    },
    {
        "Altitude(m)": 609677.8963390103,
        "Argument of Periapsis(deg)": 0.0011460840504626045,
        "Eccentricity": 0.0,
        "Inclination(deg)": 60.0,
        "Latitude(deg)": -20.13110632170336,
        "Longitude(deg)": 126.7173366749103,
        "Mean Anomaly(deg)": 203.1847676000801,
        "RAAN(deg)": 34.99537945946283,
        "Satellite Name": "Test1 166",
        "Satellite Number": 166,
        "Semi-Major Axis(m)": 6980739.136638005,
        "Time(s)": 110
    },
    {
        "Altitude(m)": 609851.0269229391,
        "Argument of Periapsis(deg)": 0.0012502735095955685,
        "Eccentricity": 0.0,
        "Inclination(deg)": 60.0,
        "Latitude(deg)": -20.657862669573525,
        "Longitude(deg)": 127.02754433072865,
        "Mean Anomaly(deg)": 203.80487374554195,
        "RAAN(deg)": 34.99495941032309,
        "Satellite Name": "Test1 166",
        "Satellite Number": 166,
        "Semi-Major Axis(m)": 6980739.136638005,
        "Time(s)": 120
    },
    {
        "Altitude(m)": 610025.9966612642,
        "Argument of Periapsis(deg)": 0.0013544629687285324,
        "Eccentricity": 0.0,
        "Inclination(deg)": 60.0,
        "Latitude(deg)": -21.183848415014868,
        "Longitude(deg)": 127.34016826330298,
        "Mean Anomaly(deg)": 204.42497989100374,
        "RAAN(deg)": 34.99453936118335,
        "Satellite Name": "Test1 166",
        "Satellite Number": 166,
        "Semi-Major Axis(m)": 6980739.136638005,
        "Time(s)": 130
    },
    {
        "Altitude(m)": 610202.7455606939,
        "Argument of Periapsis(deg)": 0.0014586524278614966,
        "Eccentricity": 0.0,
        "Inclination(deg)": 60.0,
        "Latitude(deg)": -21.709037725779588,
        "Longitude(deg)": 127.65528966256157,
        "Mean Anomaly(deg)": 205.04508603646565,
        "RAAN(deg)": 34.99411931204361,
        "Satellite Name": "Test1 166",
        "Satellite Number": 166,
        "Semi-Major Axis(m)": 6980739.136638005,
        "Time(s)": 140
    },
    {
        "Altitude(m)": 610381.2126937412,
        "Argument of Periapsis(deg)": 0.0015628418869944607,
        "Eccentricity": 0.0,
        "Inclination(deg)": 60.0,
        "Latitude(deg)": -22.233404230665936,
        "Longitude(deg)": 127.97299126583016,
        "Mean Anomaly(deg)": 205.6651921819275,
        "RAAN(deg)": 34.99369926290385,
        "Satellite Name": "Test1 166",
        "Satellite Number": 166,
        "Semi-Major Axis(m)": 6980739.136638005,
        "Time(s)": 150
    },
    {
        "Altitude(m)": 610561.3362255655,
        "Argument of Periapsis(deg)": 0.0016670313461274247,
        "Eccentricity": 0.0,
        "Inclination(deg)": 60.0,
        "Latitude(deg)": -22.756920996823276,
        "Longitude(deg)": 128.29335791634344,
        "Mean Anomaly(deg)": 206.28529832738928,
        "RAAN(deg)": 34.99327921376411,
        "Satellite Name": "Test1 166",
        "Satellite Number": 166,
        "Semi-Major Axis(m)": 6980739.136638005,
        "Time(s)": 160
    },
    {
        "Altitude(m)": 610743.0534412173,
        "Argument of Periapsis(deg)": 0.0017712208052603888,
        "Eccentricity": 0.0,
        "Inclination(deg)": 60.0,
        "Latitude(deg)": -23.27956050628012,
        "Longitude(deg)": 128.61647560989314,
        "Mean Anomaly(deg)": 206.9054044728511,
        "RAAN(deg)": 34.99285916462437,
        "Satellite Name": "Test1 166",
        "Satellite Number": 166,
        "Semi-Major Axis(m)": 6980739.136638005,
        "Time(s)": 170
    },
    {
        "Altitude(m)": 610926.3007732931,
        "Argument of Periapsis(deg)": 0.001875410264393353,
        "Eccentricity": 0.0,
        "Inclination(deg)": 60.0,
        "Latitude(deg)": -23.80129463166678,
        "Longitude(deg)": 128.94243205535543,
        "Mean Anomaly(deg)": 207.52551061831295,
        "RAAN(deg)": 34.99243911548463,
        "Satellite Name": "Test1 166",
        "Satellite Number": 166,
        "Semi-Major Axis(m)": 6980739.136638005,
        "Time(s)": 180
    },
    {
        "Altitude(m)": 611111.013829996,
        "Argument of Periapsis(deg)": 0.0019795997235263173,
        "Eccentricity": 0.0,
        "Inclination(deg)": 60.0,
        "Latitude(deg)": -24.322094611097448,
        "Longitude(deg)": 129.27131723621864,
        "Mean Anomaly(deg)": 208.1456167637748,
        "RAAN(deg)": 34.99201906634489,
        "Satellite Name": "Test1 166",
        "Satellite Number": 166,
        "Semi-Major Axis(m)": 6980739.136638005,
        "Time(s)": 190
    }
]